CCSDS_OMM_VERS = 2.0
CREATION_DATE  = 
ORIGINATOR     = 

OBJECT_NAME    = DISKSAT C
OBJECT_ID      = 2025-305A
CENTER_NAME    = EARTH
REF_FRAME      = TEME
TIME_SYSTEM    = UTC
MEAN_ELEMENT_THEORY = SGP/SGP4

EPOCH          = 2026-01-16T18:34:38.328672
MEAN_MOTION    = 15.06432707
ECCENTRICITY   = .00016822
INCLINATION    = 45.0017
RA_OF_ASC_NODE = 165.3857
ARG_OF_PERICENTER = 42.2655
MEAN_ANOMALY   = 317.8349

EPHEMERIS_TYPE = 0
CLASSIFICATION_TYPE = U
NORAD_CAT_ID   = 67219
ELEMENT_SET_NO = 999
REV_AT_EPOCH   = 446
BSTAR          = .54478022E-3
MEAN_MOTION_DOT = .7929E-4
MEAN_MOTION_DDOT = 0

CCSDS_OMM_VERS = 2.0
CREATION_DATE  = 
ORIGINATOR     = 

OBJECT_NAME    = DISKSAT B
OBJECT_ID      = 2025-305B
CENTER_NAME    = EARTH
REF_FRAME      = TEME
TIME_SYSTEM    = UTC
MEAN_ELEMENT_THEORY = SGP/SGP4

EPOCH          = 2026-01-16T10:38:39.844608
MEAN_MOTION    = 15.06353229
ECCENTRICITY   = .00013891
INCLINATION    = 45.0016
RA_OF_ASC_NODE = 167.1437
ARG_OF_PERICENTER = 45.5285
MEAN_ANOMALY   = 314.5703

EPHEMERIS_TYPE = 0
CLASSIFICATION_TYPE = U
NORAD_CAT_ID   = 67220
ELEMENT_SET_NO = 999
REV_AT_EPOCH   = 441
BSTAR          = .44741246E-3
MEAN_MOTION_DOT = .6454E-4
MEAN_MOTION_DDOT = 0

CCSDS_OMM_VERS = 2.0
CREATION_DATE  = 
ORIGINATOR     = 

OBJECT_NAME    = DISKSAT D
OBJECT_ID      = 2025-305C
CENTER_NAME    = EARTH
REF_FRAME      = TEME
TIME_SYSTEM    = UTC
MEAN_ELEMENT_THEORY = SGP/SGP4

EPOCH          = 2026-01-16T18:37:21.936576
MEAN_MOTION    = 15.06324625
ECCENTRICITY   = .00018011
INCLINATION    = 45.0019
RA_OF_ASC_NODE = 165.3988
ARG_OF_PERICENTER = 58.3964
MEAN_ANOMALY   = 301.7086

EPHEMERIS_TYPE = 0
CLASSIFICATION_TYPE = U
NORAD_CAT_ID   = 67221
ELEMENT_SET_NO = 999
REV_AT_EPOCH   = 446
BSTAR          = .45339915E-3
MEAN_MOTION_DOT = .6538E-4
MEAN_MOTION_DDOT = 0

CCSDS_OMM_VERS = 2.0
CREATION_DATE  = 
ORIGINATOR     = 

OBJECT_NAME    = DISKSAT A
OBJECT_ID      = 2025-305D
CENTER_NAME    = EARTH
REF_FRAME      = TEME
TIME_SYSTEM    = UTC
MEAN_ELEMENT_THEORY = SGP/SGP4

EPOCH          = 2026-01-16T18:39:07.885440
MEAN_MOTION    = 15.06298624
ECCENTRICITY   = .00017681
INCLINATION    = 45.0019
RA_OF_ASC_NODE = 165.4078
ARG_OF_PERICENTER = 69.0621
MEAN_ANOMALY   = 291.0443

EPHEMERIS_TYPE = 0
CLASSIFICATION_TYPE = U
NORAD_CAT_ID   = 67222
ELEMENT_SET_NO = 999
REV_AT_EPOCH   = 445
BSTAR          = .60455606E-3
MEAN_MOTION_DOT = .8794E-4
MEAN_MOTION_DDOT = 0

CCSDS_OMM_VERS = 2.0
CREATION_DATE  = 
ORIGINATOR     = 

OBJECT_NAME    = ELECTRON KICK STAGE R/B
OBJECT_ID      = 2025-305E
CENTER_NAME    = EARTH
REF_FRAME      = TEME
TIME_SYSTEM    = UTC
MEAN_ELEMENT_THEORY = SGP/SGP4

EPOCH          = 2026-01-16T02:42:43.677792
MEAN_MOTION    = 15.54146510
ECCENTRICITY   = .0161442
INCLINATION    = 44.9844
RA_OF_ASC_NODE = 157.9770
ARG_OF_PERICENTER = 307.5123
MEAN_ANOMALY   = 51.1189

EPHEMERIS_TYPE = 0
CLASSIFICATION_TYPE = U
NORAD_CAT_ID   = 67223
ELEMENT_SET_NO = 999
REV_AT_EPOCH   = 449
BSTAR          = .75810586E-3
MEAN_MOTION_DOT = .88759E-3
MEAN_MOTION_DDOT = .1059532E-4

CCSDS_OMM_VERS = 2.0
CREATION_DATE  = 
ORIGINATOR     = 

OBJECT_NAME    = TJS-23
OBJECT_ID      = 2025-306A
CENTER_NAME    = EARTH
REF_FRAME      = TEME
TIME_SYSTEM    = UTC
MEAN_ELEMENT_THEORY = SGP/SGP4

EPOCH          = 2026-01-16T00:30:14.966784
MEAN_MOTION    = 1.00270468
ECCENTRICITY   = .00006911
INCLINATION    = 5.9337
RA_OF_ASC_NODE = 298.2715
ARG_OF_PERICENTER = 67.2072
MEAN_ANOMALY   = 293.0278

EPHEMERIS_TYPE = 0
CLASSIFICATION_TYPE = U
NORAD_CAT_ID   = 67226
ELEMENT_SET_NO = 999
REV_AT_EPOCH   = 36
BSTAR          = 0
MEAN_MOTION_DOT = .43E-6
MEAN_MOTION_DDOT = 0

CCSDS_OMM_VERS = 2.0
CREATION_DATE  = 
ORIGINATOR     = 

OBJECT_NAME    = CZ-5 R/B
OBJECT_ID      = 2025-306B
CENTER_NAME    = EARTH
REF_FRAME      = TEME
TIME_SYSTEM    = UTC
MEAN_ELEMENT_THEORY = SGP/SGP4

EPOCH          = 2026-01-15T16:46:30.154368
MEAN_MOTION    = 1.92547339
ECCENTRICITY   = .75777471
INCLINATION    = 16.2657
RA_OF_ASC_NODE = 290.3526
ARG_OF_PERICENTER = 195.0766
MEAN_ANOMALY   = 113.4984

EPHEMERIS_TYPE = 0
CLASSIFICATION_TYPE = U
NORAD_CAT_ID   = 67227
ELEMENT_SET_NO = 999
REV_AT_EPOCH   = 52
BSTAR          = .19859787E-2
MEAN_MOTION_DOT = .7182E-4
MEAN_MOTION_DDOT = 0

CCSDS_OMM_VERS = 2.0
CREATION_DATE  = 
ORIGINATOR     = 

OBJECT_NAME    = QPS-SAR-15
OBJECT_ID      = 2025-307A
CENTER_NAME    = EARTH
REF_FRAME      = TEME
TIME_SYSTEM    = UTC
MEAN_ELEMENT_THEORY = SGP/SGP4

EPOCH          = 2026-01-16T21:58:12.940320
MEAN_MOTION    = 14.97383835
ECCENTRICITY   = .00076699
INCLINATION    = 42.0086
RA_OF_ASC_NODE = 337.6984
ARG_OF_PERICENTER = 83.7204
MEAN_ANOMALY   = 276.4495

EPHEMERIS_TYPE = 0
CLASSIFICATION_TYPE = U
NORAD_CAT_ID   = 67228
ELEMENT_SET_NO = 999
REV_AT_EPOCH   = 399
BSTAR          = .36880922E-3
MEAN_MOTION_DOT = .418E-4
MEAN_MOTION_DDOT = 0

CCSDS_OMM_VERS = 2.0
CREATION_DATE  = 
ORIGINATOR     = 

OBJECT_NAME    = ELECTRON R/B
OBJECT_ID      = 2025-307B
CENTER_NAME    = EARTH
REF_FRAME      = TEME
TIME_SYSTEM    = UTC
MEAN_ELEMENT_THEORY = SGP/SGP4

EPOCH          = 2026-01-16T12:34:23.213856
MEAN_MOTION    = 15.90309798
ECCENTRICITY   = .01291943
INCLINATION    = 41.9914
RA_OF_ASC_NODE = 323.1184
ARG_OF_PERICENTER = 71.1476
MEAN_ANOMALY   = 290.3342

EPHEMERIS_TYPE = 0
CLASSIFICATION_TYPE = U
NORAD_CAT_ID   = 67229
ELEMENT_SET_NO = 999
REV_AT_EPOCH   = 412
BSTAR          = .15465348E-2
MEAN_MOTION_DOT = .1074131E-1
MEAN_MOTION_DDOT = .7839359E-5

CCSDS_OMM_VERS = 2.0
CREATION_DATE  = 
ORIGINATOR     = 

OBJECT_NAME    = SPACEMOBILE-006
OBJECT_ID      = 2025-309A
CENTER_NAME    = EARTH
REF_FRAME      = TEME
TIME_SYSTEM    = UTC
MEAN_ELEMENT_THEORY = SGP/SGP4

EPOCH          = 2026-01-16T11:53:13.186464
MEAN_MOTION    = 15.17742607
ECCENTRICITY   = .00121213
INCLINATION    = 52.9984
RA_OF_ASC_NODE = 305.9975
ARG_OF_PERICENTER = 33.3140
MEAN_ANOMALY   = 326.8614

EPHEMERIS_TYPE = 0
CLASSIFICATION_TYPE = U
NORAD_CAT_ID   = 67232
ELEMENT_SET_NO = 999
REV_AT_EPOCH   = 355
BSTAR          = -.919635E-5
MEAN_MOTION_DOT = -.509E-5
MEAN_MOTION_DDOT = 0

CCSDS_OMM_VERS = 2.0
CREATION_DATE  = 
ORIGINATOR     = 

OBJECT_NAME    = LVM3 R/B
OBJECT_ID      = 2025-309B
CENTER_NAME    = EARTH
REF_FRAME      = TEME
TIME_SYSTEM    = UTC
MEAN_ELEMENT_THEORY = SGP/SGP4

EPOCH          = 2026-01-16T22:16:08.304960
MEAN_MOTION    = 15.19701979
ECCENTRICITY   = .00119087
INCLINATION    = 52.9293
RA_OF_ASC_NODE = 303.4618
ARG_OF_PERICENTER = 59.3693
MEAN_ANOMALY   = 300.8472

EPHEMERIS_TYPE = 0
CLASSIFICATION_TYPE = U
NORAD_CAT_ID   = 67233
ELEMENT_SET_NO = 999
REV_AT_EPOCH   = 362
BSTAR          = .3377518E-3
MEAN_MOTION_DOT = .6996E-4
MEAN_MOTION_DDOT = 0

CCSDS_OMM_VERS = 2.0
CREATION_DATE  = 
ORIGINATOR     = 

OBJECT_NAME    = 2025-310A
OBJECT_ID      = 2025-310A
CENTER_NAME    = EARTH
REF_FRAME      = TEME
TIME_SYSTEM    = UTC
MEAN_ELEMENT_THEORY = SGP/SGP4

EPOCH          = 2026-01-14T17:20:52.977696
MEAN_MOTION    = 14.75705364
ECCENTRICITY   = .0001912
INCLINATION    = 97.9664
RA_OF_ASC_NODE = 24.2349
ARG_OF_PERICENTER = 179.1290
MEAN_ANOMALY   = 180.9923

EPHEMERIS_TYPE = 0
CLASSIFICATION_TYPE = U
NORAD_CAT_ID   = 67234
ELEMENT_SET_NO = 999
REV_AT_EPOCH   = 299
BSTAR          = .869375E-5
MEAN_MOTION_DOT = .9E-7
MEAN_MOTION_DDOT = 0

