DISKSAT C               
1 67219U 25305A   26016.77405473  .00007929  00000+0  54478-3 0  9999
2 67219  45.0017 165.3857 0001682  42.2655 317.8349 15.06432707  4464
DISKSAT B               
1 67220U 25305B   26016.44351672  .00006454  00000+0  44741-3 0  9990
2 67220  45.0016 167.1437 0001389  45.5285 314.5703 15.06353229  4412
DISKSAT D               
1 67221U 25305C   26016.77594834  .00006538  00000+0  45340-3 0  9995
2 67221  45.0019 165.3988 0001801  58.3964 301.7086 15.06324625  4467
DISKSAT A               
1 67222U 25305D   26016.77717460  .00008794  00000+0  60456-3 0  9999
2 67222  45.0019 165.4078 0001768  69.0621 291.0443 15.06298624  4456
ELECTRON KICK STAGE R/B 
1 67223U 25305E   26016.11300553  .00088759  10595-4  75811-3 0  9994
2 67223  44.9844 157.9770 0161442 307.5123  51.1189 15.54146510  4494
TJS-23                  
1 67226U 25306A   26016.02100656  .00000043  00000+0  00000+0 0  9999
2 67226   5.9337 298.2715 0000691  67.2072 293.0278  1.00270468   364
CZ-5 R/B                
1 67227U 25306B   26015.69896012  .00007182  00000+0  19860-2 0  9998
2 67227  16.2657 290.3526 7577747 195.0766 113.4984  1.92547339   528
QPS-SAR-15              
1 67228U 25307A   26016.91542755  .00004180  00000+0  36881-3 0  9996
2 67228  42.0086 337.6984 0007669  83.7204 276.4495 14.97383835  3998
ELECTRON R/B            
1 67229U 25307B   26016.52387979  .01074131  78394-5  15465-2 0  9994
2 67229  41.9914 323.1184 0129194  71.1476 290.3342 15.90309798  4121
SPACEMOBILE-006         
1 67232U 25309A   26016.49529151 -.00000509  00000+0 -91964-5 0  9999
2 67232  52.9984 305.9975 0012121  33.3140 326.8614 15.17742607  3551
LVM3 R/B                
1 67233U 25309B   26016.92787390  .00006996  00000+0  33775-3 0  9997
2 67233  52.9293 303.4618 0011908  59.3693 300.8472 15.19701979  3626
2025-310A               
1 67234U 25310A   26014.72283539  .00000009  00000+0  86937-5 0  9991
2 67234  97.9664  24.2349 0001912 179.1290 180.9923 14.75705364  2995
